CHINASAT 3B             
1 64062U 25106A   25169.82248270 -.00000034  00000+0  00000+0 0  9994
2 64062   0.0357  92.7045 0001970 157.4456 120.5378  1.00270191   413
CZ-7A R/B               
1 64063U 25106B   25168.07772900  .00223628 -40160-6  22460-2 0  9994
2 64063  15.5976  64.2839 7108049 202.1471  97.4277  2.55922355   691
STARLINK-11741 [DTC]    
1 64064U 25107A   25170.20446946  .00260796  00000+0  14450-2 0  9990
2 64064  42.9943 247.7934 0002966 292.7593  67.2963 15.78024957  5780
STARLINK-11709 [DTC]    
1 64065U 25107B   25169.50328945  .00255021  00000+0  14183-2 0  9998
2 64065  42.9964 251.9973 0001480 251.6095 108.4614 15.77959633  5738
STARLINK-11737 [DTC]    
1 64066U 25107C   25169.68830972  .00223493  00000+0  12499-2 0  9992
2 64066  42.9995 250.8037 0003121 279.4255  80.6262 15.77922151  5760
STARLINK-11726 [DTC]    
1 64067U 25107D   25169.68343479  .00254635  00000+0  14163-2 0  9996
2 64067  42.9979 250.7625 0002294 294.7849  65.2783 15.77957802  5762
STARLINK-11700 [DTC]    
1 64068U 25107E   25170.18495141  .00361535  00000+0  19847-2 0  9990
2 64068  42.9969 247.6379 0001837 252.5511 107.5159 15.77954816  5818
STARLINK-11649 [DTC]    
1 64069U 25107F   25170.18007174  .00344164  00000+0  18961-2 0  9991
2 64069  42.9969 247.5974 0001525 261.2407  98.8291 15.77922633  5815
STARLINK-11713 [DTC]    
1 64070U 25107G   25170.11189277  .00277657  00000+0  15442-2 0  9994
2 64070  42.9951 247.9433 0001020 281.4835  78.5921 15.77895712  5790
STARLINK-11719 [DTC]    
1 64071U 25107H   25169.91711707  .00283392  00000+0  15665-2 0  9990
2 64071  42.9961 249.0611 0001835 301.3820  58.6870 15.78016265  5761
STARLINK-11733 [DTC]    
1 64072U 25107J   25169.91223513  .00319171  00000+0  17603-2 0  9993
2 64072  42.9957 249.0230 0002095 288.9680  71.0963 15.77967385  5766
STARLINK-11729 [DTC]    
1 64073U 25107K   25169.46426004  .00258444  00000+0  14408-2 0  9999
2 64073  42.9991 251.6856 0002290 294.7962  65.2670 15.77895744  5739
STARLINK-11730 [DTC]    
1 64074U 25107L   25170.21897546  .00286946  00000+0  15816-2 0  9990
2 64074  42.9974 247.0193 0007218 293.8193  66.1920 15.78045479  5815
STARLINK-11723 [DTC]    
1 64075U 25107M   25170.21408361  .00269961  00000+0  15052-2 0  9994
2 64075  42.9965 246.9769 0001365 244.9124 115.1604 15.77860966  5764
STARLINK-11715 [DTC]    
1 64076U 25107N   25169.91668981 -.00015677  00000+0 -87333-4 0  9994
2 64076  42.9982 248.7206 0001672 276.6352 219.7672 15.77869147  5751
STARLINK-34201          
1 64077U 25107P   25169.91668981 -.00009198  00000+0 -21316-3 0  9994
2 64077  42.9988 252.5397 0001594 264.5575 123.2095 15.40703117  5705
STARLINK-34190          
1 64078U 25107Q   25169.91668981 -.00008488  00000+0 -19616-3 0  9996
2 64078  42.9999 252.2980 0001760 272.9591 214.3318 15.40698022  5651
STARLINK-34168          
1 64079U 25107R   25170.16670139 -.01557687  00000+0 -37137-1 0  9991
2 64079  42.9996 250.6920 0001251 267.1817 237.6644 15.43946837  5784
STARLINK-34098          
1 64080U 25107S   25169.23465985  .00104616  00000+0  17598-2 0  9997
2 64080  42.9993 256.0832 0001112 193.8295 166.2535 15.50667397  5668
STARLINK-34180          
1 64081U 25107T   25169.91668981 -.00006763  00000+0 -15478-3 0  9996
2 64081  42.9992 252.4184 0001591 265.6083 171.9255 15.40700922  5812
STARLINK-34171          
1 64082U 25107U   25169.68454319  .00054989  00000+0  93488-3 0  9997
2 64082  42.9943 253.4341 0000386  88.3407 271.7498 15.50629930  5735
STARLINK-34126          
1 64083U 25107V   25169.91668981 -.00008761  00000+0 -20268-3 0  9991
2 64083  42.9989 252.4773 0001423 270.2901 142.3677 15.40704518  5702
STARLINK-34157          
1 64084U 25107W   25169.68315835  .00053501  00000+0  91006-3 0  9991
2 64084  43.0037 253.4277 0003935 277.9093  82.1320 15.50619422  5712
STARLINK-34140          
1 64085U 25107X   25170.16670139 -.01536331  00000+0 -33263-1 0  9997
2 64085  42.9985 250.6317 0001247 268.4977 260.6253 15.46691578  5789
STARLINK-34132          
1 64086U 25107Y   25169.91668981 -.00000896  00000+0 -14185-4 0  9997
2 64086  43.0001 252.2082 0001807 241.5421 283.0366 15.40684518  5544
2025-108A               
1 64087U 25108A   25170.17291425  .00005148  00000+0  28965-3 0  9997
2 64087  97.5124 245.5889 0016365 185.6952 174.4096 15.13584615  4399
2025-108B               
1 64088U 25108B   25170.18024132  .00005643  00000+0  32024-3 0  9999
2 64088  97.5087 245.5661 0015595 179.3741 180.7512 15.13243261  4354
2025-108C               
1 64089U 25108C   25170.18353100  .00003839  00000+0  22212-3 0  9993
2 64089  97.5057 245.5466 0017735 176.0576 184.0798 15.12714807  4354
2025-108D               
1 64090U 25108D   25170.17749670  .00003598  00000+0  20447-3 0  9995
2 64090  97.5056 245.5582 0015510 183.9938 176.1172 15.13435976  4358
2025-108E               
1 64091U 25108E   25170.17889965  .00008121  00000+0  45714-3 0  9999
2 64091  97.5048 245.5541 0015632 180.0578 180.0654 15.13394893  4359
2025-108F               
1 64092U 25108F   25170.17581805  .00008761  00000+0  49015-3 0  9990
2 64092  97.5044 245.5562 0015724 182.7035 177.4114 15.13590086  4351
ZK-1 R/B                
1 64093U 25108G   25170.21170395  .00010713  00000+0  25844-3 0  9998
2 64093  97.4636 246.4263 0103646 274.6491  84.2921 15.35910465  4424
COSMOS 2588             
1 64095U 25109A   25169.87820712  .00009996  00000+0  33489-3 0  9991
2 64095  72.9729 311.5268 0010964 200.5043 159.5715 15.30997874  4068
STARLINK-34178          
1 64096U 25110A   25170.02790006  .00055943  00000+0  10062-2 0  9999
2 64096  53.1604 180.7472 0001255  99.0414 261.0737 15.49323467  5280
STARLINK-34174          
1 64097U 25110B   25169.91668981  .00063109  00000+0  15763-2 0  9998
2 64097  53.1603 181.7579 0001129  89.3978 130.2625 15.39588489  5331
STARLINK-34146          
1 64098U 25110C   25169.91668981  .00066246  00000+0  16536-2 0  9993
2 64098  53.1599 181.7023 0000872  94.3053 152.8543 15.39586245  5331
STARLINK-34074          
1 64099U 25110D   25169.91668981  .00068483  00000+0  17086-2 0  9990
2 64099  53.1596 181.6508 0000987  83.3513 189.6753 15.39586615  5334
STARLINK-34082          
1 64100U 25110E   25169.91668981  .00068923  00000+0  17192-2 0  9990
2 64100  53.1607 181.8085 0000832  89.6520 104.2470 15.39590311  5335
STARLINK-34072          
1 64101U 25110F   25170.16670139 -.00002563  00000+0 -54076-4 0  9992
2 64101  53.1604 180.5768 0001242  92.8129  75.1592 15.39638430  5295
STARLINK-34104          
1 64102U 25110G   25170.16670139 -.00004209  00000+0 -95294-4 0  9999
2 64102  53.1601 180.5278 0000784  70.2270 121.6753 15.39624882  5298
STARLINK-34179          
1 64103U 25110H   25169.91668981  .00067804  00000+0  16921-2 0  9999
2 64103  53.1596 181.6538 0001152  91.9709 179.1925 15.39582785  5339
STARLINK-34176          
1 64104U 25110J   25170.16670139  .00000774  00000+0  29320-4 0  9999
2 64104  53.1594 180.4252 0000799 114.4238 128.8712 15.39616190  5290
STARLINK-33949          
1 64105U 25110K   25169.91668981  .00071569  00000+0  17856-2 0  9992
2 64105  53.1592 181.5983 0000795 121.4207 177.2959 15.39566175  5335
STARLINK-33970          
1 64106U 25110L   25169.91668981  .00083181  00000+0  20707-2 0  9995
2 64106  53.1590 181.5469 0001198 101.0095 223.5484 15.39563854  5339
STARLINK-33912          
1 64107U 25110M   25170.16670139 -.02082749  00000+0 -55704-1 0  9990
2 64107  53.1600 180.3240 0001788  86.7801 207.1914 15.41217937  5297
STARLINK-34156          
1 64108U 25110N   25170.16670139 -.01549267  00000+0 -37796-1 0  9994
2 64108  53.1596 180.2822 0001241 111.6883 203.0472 15.43476551  5306
STARLINK-34124          
1 64109U 25110P   25170.16670139 -.01562197  00000+0 -35429-1 0  9993
2 64109  53.1598 180.2563 0001149 109.3124 218.1579 15.45630628  5304
STARLINK-34145          
1 64110U 25110Q   25170.16670139  .00001305  00000+0  42648-4 0  9995
2 64110  53.1595 180.3726 0001346  93.2669 175.8804 15.39588194  5302
STARLINK-34148          
1 64111U 25110R   25170.16670139 -.01555787  00000+0 -35504-1 0  9997
2 64111  53.1603 180.2497 0001277 102.1414 228.3907 15.45436470  5302
STARLINK-34136          
1 64112U 25110S   25170.16670139 -.01464500  00000+0 -36702-1 0  9991
2 64112  53.1593 180.2793 0001139 102.5189 213.6813 15.42510436  5305
STARLINK-33839          
1 64113U 25110T   25170.17018118  .00089681  00000+0  16336-2 0  9998
2 64113  53.1595 180.2114 0004123 303.8172  56.2444 15.48746532  5304
STARLINK-34064          
1 64114U 25110U   25170.16670139  .00013711  00000+0  35243-3 0  9995
2 64114  53.1598 180.3170 0001426  84.7059 212.1020 15.39595133  5305
STARLINK-34067          
1 64115U 25110V   25170.04018025  .00058187  00000+0  10460-2 0  9992
2 64115  53.1591 180.8240 0001177  59.8693 300.2432 15.49321785  5286
STARLINK-34080          
1 64116U 25110W   25170.03983568  .00061089  00000+0  10977-2 0  9993
2 64116  53.1595 180.8211 0001188  83.8387 276.2757 15.49313057  5283
STARLINK-34122          
1 64117U 25110X   25170.16851086  .00091295  00000+0  16257-2 0  9996
2 64117  53.1596 180.2012 0001581  62.6605 297.4565 15.49391155  5303
STARLINK-33964          
1 64118U 25110Y   25170.16670139 -.01576354  00000+0 -34761-1 0  9991
2 64118  53.1602 180.2146 0001073  91.2292 256.3664 15.46468677  5301
STARLINK-34160          
1 64119U 25110Z   25170.03880580  .00067751  00000+0  12149-2 0  9991
2 64119  53.1592 180.8156 0001265  71.2650 288.8496 15.49327214  5280
STARLINK-34151          
1 64120U 25110AA  25169.45789090  .00032401  00000+0  58766-3 0  9991
2 64120  53.1604 183.5863 0001591  61.4663 298.6506 15.49334958  5293
STARLINK-34189          
1 64121U 25110AB  25169.45720178  .00047661  00000+0  85925-3 0  9995
2 64121  53.1600 183.5845 0001283  78.9395 281.1758 15.49326422  5296
